NORAD_CAT_ID,OBJECT_NAME,OBJECT_TYPE,EPOCH,MEAN_MOTION,ECCENTRICITY,INCLINATION,RA_OF_ASC_NODE,ARG_OF_PERICENTER,MEAN_ANOMALY,BSTAR,MEAN_MOTION_DOT,MEAN_MOTION_DDOT,TLE_LINE0,TLE_LINE1,TLE_LINE2,SEMIMAJOR_AXIS,PERIOD,APOGEE,PERIGEE,DECAYED
53008.0,STARLINK-4275,PAYLOAD,2023-10-31 09:30:54,15.0883376,0.0001813,53.2179,356.1198,85.1061,275.0138,0.00056847,8.769e-05,0.0,0 STARLINK-4275,1 53008U 22076Y   23304.39646114  .00008769  00000-0  56847-3 0  9992,2 53008  53.2179 356.1198 0001813  85.1061 275.0138 15.08833760 73447,6917.899,95.438,541.019,538.51,0.0
53008.0,STARLINK-4275,PAYLOAD,2023-10-31 12:41:40,15.08841561,0.0001696,53.2171,355.5264,87.7311,272.3876,0.0009159,0.00014319,0.0,0 STARLINK-4275,1 53008U 22076Y   23304.52894086  .00014319  00000-0  91590-3 0  9992,2 53008  53.2171 355.5264 0001696  87.7311 272.3876 15.08841561 72997,6917.876,95.437,540.914,538.567,0.0
53008.0,STARLINK-4275,PAYLOAD,2023-10-31 20:38:36,15.08843993,0.000187,53.2179,354.0385,86.0891,274.0315,0.00098451,0.00015417,0.0,0 STARLINK-4275,1 53008U 22076Y   23304.86014372  .00015417  00000-0  98451-3 0  9994,2 53008  53.2179 354.0385 0001870  86.0891 274.0315 15.08843993 73047,6917.868,95.437,541.027,538.44,0.0
53008.0,STARLINK-4275,PAYLOAD,2023-11-01 12:32:27,15.08864495,0.0001615,53.2167,351.0652,87.0845,273.0332,0.001044,0.00016377,0.0,0 STARLINK-4275,1 53008U 22076Y   23305.52253675  .00016377  00000-0  10440-2 0  9996,2 53008  53.2167 351.0652 0001615  87.0845 273.0332 15.08864495 73616,6917.806,95.436,540.788,538.553,0.0
53008.0,STARLINK-4275,PAYLOAD,2023-11-01 20:29:22,15.0885249,0.0001649,53.2178,349.5788,93.3063,266.8118,0.00047412,7.268e-05,0.0,0 STARLINK-4275,1 53008U 22076Y   23305.85373767  .00007268  00000-0  47412-3 0  9996,2 53008  53.2178 349.5788 0001649  93.3063 266.8118 15.08852490 73668,6917.842,95.437,540.848,538.566,0.0
53008.0,STARLINK-4275,PAYLOAD,2023-11-02 12:23:13,15.08857112,0.0001836,53.2173,346.6015,103.3528,256.7669,0.00053559,8.25e-05,0.0,0 STARLINK-4275,1 53008U 22076Y   23306.51613297  .00008250  00000-0  53559-3 0  9996,2 53008  53.2173 346.6015 0001836 103.3528 256.7669 15.08857112 73294,6917.828,95.436,540.963,538.423,0.0
53008.0,STARLINK-4275,PAYLOAD,2023-11-03 09:03:14,15.08851492,0.0001706,53.2171,342.7376,100.3352,259.7833,0.00061967,9.591e-05,0.0,0 STARLINK-4275,1 53008U 22076Y   23307.37725631  .00009591  00000-0  61967-3 0  9998,2 53008  53.2171 342.7376 0001706 100.3352 259.7833 15.08851492 73894,6917.845,95.437,540.89,538.53,0.0
53008.0,STARLINK-4275,PAYLOAD,2023-11-03 12:14:01,15.08855234,0.0001704,53.217,342.1426,91.4809,268.6378,0.00084457,0.00013184,0.0,0 STARLINK-4275,1 53008U 22076Y   23307.50973625  .00013184  00000-0  84457-3 0  9993,2 53008  53.2170 342.1426 0001704  91.4809 268.6378 15.08855234 73440,6917.834,95.437,540.878,538.52,0.0
53008.0,STARLINK-4275,PAYLOAD,2023-11-04 02:32:29,15.08836808,0.0001796,53.2173,339.465,100.255,259.8645,0.00079254,0.00012347,0.0,0 STARLINK-4275,1 53008U 22076Y   23308.10590126  .00012347  00000-0  79254-3 0  9990,2 53008  53.2173 339.4650 0001796 100.2550 259.8645 15.08836808 74002,6917.89,95.438,540.998,538.513,0.0
53008.0,STARLINK-4275,PAYLOAD,2023-11-04 08:54:02,15.08844577,0.0001681,53.2179,338.275,87.4417,272.6768,0.0010489,0.00016447,0.0,0 STARLINK-4275,1 53008U 22076Y   23308.37086193  .00016447  00000-0  10489-2 0  9992,2 53008  53.2179 338.2750 0001681  87.4417 272.6768 15.08844577 73579,6917.866,95.437,540.894,538.569,0.0
53008.0,STARLINK-4275,PAYLOAD,2023-11-05 02:23:17,15.0885115,0.0001739,53.2176,335.0053,86.6901,273.429,0.0010607,0.00016638,0.0,0 STARLINK-4275,1 53008U 22076Y   23309.09950250  .00016638  00000-0  10607-2 0  9990,2 53008  53.2176 335.0053 0001739  86.6901 273.4290 15.08851150 74159,6917.846,95.437,540.914,538.508,0.0
53008.0,STARLINK-4275,PAYLOAD,2023-11-05 08:44:49,15.08868448,0.0001729,53.2175,333.8149,85.5435,274.5754,0.0015353,0.0002425,0.0,0 STARLINK-4275,1 53008U 22076Y   23309.36445856  .00024250  00000-0  15353-2 0  9993,2 53008  53.2175 333.8149 0001729  85.5435 274.5754 15.08868448 73726,6917.793,95.436,540.855,538.462,0.0
53008.0,STARLINK-4275,PAYLOAD,2023-11-05 18:17:07,15.08859358,0.0001771,53.2181,332.0341,88.9356,271.1839,0.00066664,0.00010343,0.0,0 STARLINK-4275,1 53008U 22076Y   23309.76189636  .00010343  00000-0  66664-3 0  9998,2 53008  53.2181 332.0341 0001771  88.9356 271.1839 15.08859358 74250,6917.821,95.436,540.911,538.461,0.0
53008.0,STARLINK-4275,PAYLOAD,2023-11-06 08:35:35,15.08856979,0.0001814,53.2181,329.3608,91.1331,268.9869,0.00034247,5.169e-05,0.0,0 STARLINK-4275,1 53008U 22076Y   23310.35805303  .00005169  00000-0  34247-3 0  9993,2 53008  53.2181 329.3608 0001814  91.1331 268.9869 15.08856979 74345,6917.828,95.436,540.948,538.439,0.0
53008.0,STARLINK-4275,PAYLOAD,2023-11-06 18:07:55,15.08824359,0.0001946,53.2165,327.5729,78.9118,281.2093,-0.00038271,-6.371e-05,0.0,0 STARLINK-4275,1 53008U 22076Y   23310.75550385 -.00006371  00000-0 -38271-3 0  9993,2 53008  53.2165 327.5729 0001946  78.9118 281.2093 15.08824359 74404,6917.928,95.439,541.139,538.447,0.0
53008.0,STARLINK-4275,PAYLOAD,2023-11-07 11:37:11,15.08815859,0.0001346,53.2162,324.3014,91.6591,268.4555,0.00027295,4.056e-05,0.0,0 STARLINK-4275,1 53008U 22076Y   23311.48416214  .00004056  00000-0  27295-3 0  9996,2 53008  53.2162 324.3014 0001346  91.6591 268.4555 15.08815859 74511,6917.954,95.439,540.75,538.888,0.0
53008.0,STARLINK-4275,PAYLOAD,2023-11-08 09:52:35,15.08873714,0.0001432,53.2162,320.139,90.1333,269.9824,0.0014849,0.00023445,0.0,0 STARLINK-4275,1 53008U 22076Y   23312.41151800  .00023445  00000-0  14849-2 0  9990,2 53008  53.2162 320.1390 0001432  90.1333 269.9824 15.08873714 74650,6917.777,95.435,540.633,538.652,0.0
53008.0,STARLINK-4275,PAYLOAD,2023-11-08 17:49:30,15.08865141,9.68e-05,53.2165,318.6544,100.5988,259.5113,0.00099614,0.00015612,0.0,0 STARLINK-4275,1 53008U 22076Y   23312.74271287  .00015612  00000-0  99614-3 0  9999,2 53008  53.2165 318.6544 0000968 100.5988 259.5113 15.08865141 74708,6917.804,95.436,540.338,538.999,0.0
53008.0,STARLINK-4275,PAYLOAD,2023-11-09 09:43:21,15.08868074,0.0001554,53.2152,315.6796,96.8363,263.2805,0.00098781,0.0001548,0.0,0 STARLINK-4275,1 53008U 22076Y   23313.40510636  .00015480  00000-0  98781-3 0  9994,2 53008  53.2152 315.6796 0001554  96.8363 263.2805 15.08868074 74805,6917.795,95.436,540.735,538.585,0.0
53008.0,STARLINK-4275,PAYLOAD,2023-11-09 17:40:17,15.08855055,0.0002062,53.2157,314.1918,88.6176,271.5052,0.00047202,7.235e-05,0.0,0 STARLINK-4275,1 53008U 22076Y   23313.73630947  .00007235  00000-0  47202-3 0  9999,2 53008  53.2157 314.1918 0002062  88.6176 271.5052 15.08855055 74852,6917.834,95.437,541.126,538.273,0.0
53008.0,STARLINK-4275,PAYLOAD,2023-11-10 06:23:22,15.08846394,0.0001646,53.2163,311.8131,94.1686,265.9495,0.00075743,0.00011789,0.0,0 STARLINK-4275,1 53008U 22076Y   23314.26622768  .00011789  00000-0  75743-3 0  9990,2 53008  53.2163 311.8131 0001646  94.1686 265.9495 15.08846394 74938,6917.861,95.437,540.865,538.587,0.0
53008.0,STARLINK-4275,PAYLOAD,2023-11-10 17:31:04,15.08837173,0.0001635,53.2164,309.7317,89.128,270.9899,0.00039408,5.989e-05,0.0,0 STARLINK-4275,1 53008U 22076Y   23314.72991236  .00005989  00000-0  39408-3 0  9993,2 53008  53.2164 309.7317 0001635  89.1280 270.9899 15.08837173 75001,6917.889,95.438,540.885,538.623,0.0
53008.0,STARLINK-4275,PAYLOAD,2023-11-11 03:03:23,15.08826814,0.0001891,53.2174,307.9464,100.613,259.5075,0.00014337,1.994e-05,0.0,0 STARLINK-4275,1 53008U 22076Y   23315.12735862  .00001994  00000-0  14337-3 0  9995,2 53008  53.2174 307.9464 0001891 100.6130 259.5075 15.08826814 75067,6917.921,95.438,541.094,538.478,0.0
53008.0,STARLINK-4275,PAYLOAD,2023-11-11 06:14:10,15.08823659,0.0001737,53.2168,307.3524,97.5205,262.5985,2.2556e-05,7.1e-07,0.0,0 STARLINK-4275,1 53008U 22076Y   23315.25984126  .00000071  00000-0  22556-4 0  9996,2 53008  53.2168 307.3524 0001737  97.5205 262.5985 15.08823659 74615,6917.93,95.439,540.997,538.594,0.0
53008.0,STARLINK-4275,PAYLOAD,2023-11-12 02:54:10,15.08846368,0.0001696,53.2176,303.4845,116.6437,243.4729,0.0004574,7e-05,0.0,0 STARLINK-4275,1 53008U 22076Y   23316.12095733  .00007000  00000-0  45740-3 0  9998,2 53008  53.2176 303.4845 0001696 116.6437 243.4729 15.08846368 75214,6917.861,95.437,540.899,538.553,0.0
53008.0,STARLINK-4275,PAYLOAD,2023-11-12 09:15:43,15.08861206,0.0001708,53.2173,302.2972,97.6642,262.4544,0.00091036,0.00014238,0.0,0 STARLINK-4275,1 53008U 22076Y   23316.38591564  .00014238  00000-0  91036-3 0  9999,2 53008  53.2173 302.2972 0001708  97.6642 262.4544 15.08861206 74784,6917.816,95.436,540.862,538.499,0.0
53008.0,STARLINK-4275,PAYLOAD,2023-11-13 02:44:57,15.0885578,0.0001656,53.2162,299.0196,109.635,250.4821,0.00039351,5.983e-05,0.0,0 STARLINK-4275,1 53008U 22076Y   23317.11455151  .00005983  00000-0  39351-3 0  9991,2 53008  53.2162 299.0196 0001656 109.6350 250.4821 15.08855780 75365,6917.832,95.437,540.843,538.552,0.0
53008.0,STARLINK-4275,PAYLOAD,2023-11-13 05:55:43,15.08864036,0.0001432,53.2167,298.4308,96.7847,263.3308,0.00063882,9.9e-05,0.0,0 STARLINK-4275,1 53008U 22076Y   23317.24703081  .00009900  00000-0  63882-3 0  9992,2 53008  53.2167 298.4308 0001432  96.7847 263.3308 15.08864036 74914,6917.807,95.436,540.663,538.681,0.0
53008.0,STARLINK-4275,PAYLOAD,2023-11-13 21:49:34,15.0885343,0.0001665,53.2181,295.4606,103.6176,256.5002,0.00036982,5.605e-05,0.0,0 STARLINK-4275,1 53008U 22076Y   23317.90942983  .00005605  00000-0  36982-3 0  9990,2 53008  53.2181 295.4606 0001665 103.6176 256.5002 15.08853430 75012,6917.839,95.437,540.856,538.553,0.0
53008.0,STARLINK-4275,PAYLOAD,2023-11-14 04:11:07,15.08842481,0.0001535,53.2168,294.2674,91.6879,268.4289,0.00019566,2.828e-05,0.0,0 STARLINK-4275,1 53008U 22076Y   23318.17439166  .00002828  00000-0  19566-3 0  9997,2 53008  53.2168 294.2674 0001535  91.6879 268.4289 15.08842481 75520,6917.873,95.437,540.8,538.676,0.0
